SatCatId,ObjectName,LaunchYear,OrbitalPeriod,LaunchMass,StatusCode,Inclination,Status,UcsData,OrbitClassEstimated,LaunchSiteCountry,Owner,UseType,Purpose,LaunchVehicleClass,TLE1,TLE2,MeanMotion,Eccentricity,OrbitClass
28644,SPACEWAY 1,2005,1462.04,-1.0,-,5.86,Inactive,0,GSO,Sea Launch Platform,USA,Unknown,Unknown,Unknown,1 28644U 05015A   25206.33934957 -.00000171  00000+0  00000+0 0  9991,2 28644   5.8580  74.6107 0005183 117.1025 241.1114  0.98492117 42956,0.98492117,0.0005183,GSO
28650,HAMSAT (VO-52),2005,95.65,-1.0,-,98.0,Inactive,0,LEO,India,India,Unknown,Unknown,Unknown,1 28650U 05017B   25206.48054935  .00004973  00000+0  34807-3 0  9994,2 28650  98.0039 211.3485 0022525  63.7482 296.6055 15.05547470 97537,15.0554747,0.0022525,LEO
20465,COSMOS 2058,1990,95.42,-1.0,UNK,82.47,Inactive,0,LEO,Russia,Russia/USSR,Unknown,Unknown,Unknown,1 20465U 90010A   25206.57616587  .00003108  00000+0  19432-3 0  9990,2 20465  82.4748 270.6830 0008543  46.0974 314.0959 15.09088059907965,15.09088059,0.0008543,LEO
20473,STTW-4,1990,1435.87,-1.0,-,14.32,Inactive,0,GSO,PRC,China,Unknown,Unknown,Unknown,1 20473U 90011A   25206.49112545  .00000056  00000+0  00000+0 0  9992,2 20473  14.3166 348.8798 0005089 158.0422  26.0986  1.00287540129763,1.0028754,0.0005089,GSO
20478,MOMO-1B (MOS-1B),1990,103.15,-1.0,-,99.27,Inactive,0,LEO,Japan,Japan,Unknown,Unknown,Unknown,1 20478U 90013A   25206.38329617  .00000085  00000+0  95335-4 0  9999,2 20478  99.2687 261.3760 0005485   7.2426 352.8813 13.95982318726433,13.95982318,0.0005485,LEO
20479,ORIZURU (DEBUT),1990,112.15,-1.0,UNK,99.02,Inactive,0,LEO,Japan,Japan,Unknown,Unknown,Unknown,1 20479U 90013B   25206.50333752  .00000005  00000+0  76439-4 0  9995,2 20479  99.0225 190.5592 0539022 149.7328 213.6098 12.84007008661649,12.84007008,0.0539022,LEO
20480,JAS-1B (FO-20),1990,112.2,-1.0,-,99.03,Inactive,0,LEO,Japan,Japan,Unknown,Unknown,Unknown,1 20480U 90013C   25206.47512853 -.00000034  00000+0 -91372-5 0  9992,2 20480  99.0260 185.5022 0540280 164.5653 197.2674 12.83478714661424,12.83478714,0.054028,LEO
12295,KIKU-3 (ETS-IV),1981,241.44,-1.0,-,28.46,Inactive,0,MEO,Japan,Japan,Unknown,Unknown,Unknown,1 12295U 81012A   25205.67126004  .00022065  00000+0  24846-2 0  9991,2 12295  28.4623  10.7227 4811834 132.0637 280.4120  5.96423362621361,5.96423362,0.4811834,MEO
12297,COSMOS 1244,1981,104.71,-1.0,UNK,82.96,Inactive,0,LEO,Russia,Russia/USSR,Unknown,Unknown,Unknown,1 12297U 81013A   25206.32709583  .00000050  00000+0  36154-4 0  9993,2 12297  82.9551 327.5482 0030895  25.8861 352.7823 13.75210730874344,13.7521073,0.0030895,LEO
12303,COSMOS 1247,1981,711.15,-1.0,UNK,68.69,Inactive,0,MEO,Russia,Russia/USSR,Unknown,Unknown,Unknown,1 12303U 81016A   25201.76524918  .00000329  00000+0  00000+0 0  9999,2 12303  68.6944  18.1713 6301090 348.8222   1.9190  2.02488954328462,2.02488954,0.630109,MEO
20499,RADUGA 25,1990,1435.96,-1.0,-,12.66,Inactive,0,GSO,Kazakhstan,Russia/USSR,Unknown,Unknown,Unknown,1 20499U 90016A   25206.32508220 -.00000249  00000+0  00000+0 0  9991,2 20499  12.6637 336.9487 0005780 196.8176 215.2626  1.00281895129638,1.00281895,0.000578,GSO
12309,ESIAFI 1 (COMSTAR 4),1981,1436.17,-1.0,-,9.33,Inactive,0,GSO,USA,USA,Unknown,Unknown,Unknown,1 12309U 81018A   25205.80687512 -.00000148  00000+0  00000+0 0  9996,2 12309   9.3324 313.3631 0002451 107.3667 252.7895  1.00266666164169,1.00266666,0.0002451,GSO
28498,PARASOL,2004,97.71,-1.0,-,98.49,Inactive,0,LEO,French Guiana,France,Unknown,Unknown,Unknown,1 28498U 04049G   25206.48402765  .00000871  00000+0  14167-3 0  9996,2 28498  98.4940  17.3733 0013958 343.5872  16.4880 14.73743462101100,14.73743462,0.0013958,LEO
20508,NADEZHDA 2,1990,104.76,-1.0,-,82.96,Inactive,0,LEO,Russia,Russia/USSR,Unknown,Unknown,Unknown,1 20508U 90017A   25206.43326167  .00000050  00000+0  36930-4 0  9998,2 20508  82.9584 315.4084 0042649 270.7342 156.6707 13.74515916775494,13.74515916,0.0042649,LEO
20510,OKEAN-2,1990,95.19,-1.0,UNK,82.5,Inactive,0,LEO,Russia,Russia/USSR,Unknown,Unknown,Unknown,1 20510U 90018A   25206.47543574  .00004735  00000+0  26802-3 0  9999,2 20510  82.4985 195.7146 0006631  18.9709 109.2644 15.12806176904601,15.12806176,0.0006631,LEO
12319,COSMOS 1249,1981,103.84,-1.0,UNK,64.96,Inactive,0,LEO,Kazakhstan,Russia/USSR,Unknown,Unknown,Unknown,1 12319U 81021A   25206.53712313 -.00000045  00000+0  37719-4 0  9998,2 12319  64.9636 272.7573 0049105 356.2342   3.8342 13.86750050249773,13.8675005,0.0049105,LEO
12320,COSMOS 1250,1981,114.44,-1.0,UNK,74.03,Inactive,0,LEO,Russia,Russia/USSR,Unknown,Unknown,Unknown,1 12320U 81022A   25206.35355059  .00000016  00000+0  18675-3 0  9997,2 12320  74.0289  71.7288 0052387 196.4762 346.0707 12.58274798 38790,12.58274798,0.0052387,LEO
12321,COSMOS 1251,1981,114.61,-1.0,UNK,74.03,Inactive,0,LEO,Russia,Russia/USSR,Unknown,Unknown,Unknown,1 12321U 81022B   25206.30234198 -.00000021  00000+0 -24891-4 0  9999,2 12321  74.0299 144.4799 0044978 288.0494 186.2960 12.56483336 35862,12.56483336,0.0044978,LEO
12322,COSMOS 1252,1981,114.76,-1.0,UNK,74.03,Inactive,0,LEO,Russia,Russia/USSR,Unknown,Unknown,Unknown,1 12322U 81022C   25206.52157558 -.00000012  00000+0  24346-4 0  9992,2 12322  74.0267 212.3965 0034789   2.3498 169.7805 12.54804687 33178,12.54804687,0.0034789,LEO
12323,COSMOS 1253,1981,115.59,-1.0,UNK,74.03,Inactive,0,LEO,Russia,Russia/USSR,Unknown,Unknown,Unknown,1 12323U 81022D   25206.49990318 -.00000010  00000+0  38371-4 0  9999,2 12323  74.0266 212.8357 0017839 181.1440 294.0776 12.45835079 18630,12.45835079,0.0017839,LEO
4132,SOICAL [CONE],1969,100.64,-1.0,UNK,69.99,Inactive,0,LEO,USA,USA,Unknown,Unknown,Unknown,1 04132U 69082K   25206.53889883  .00001077  00000+0  43203-3 0  9991,2 04132  69.9935 291.9635 0009561 232.8659 127.1592 14.30835366874166,14.30835366,0.0009561,LEO
12324,COSMOS 1254,1981,114.91,-1.0,UNK,74.03,Inactive,0,LEO,Russia,Russia/USSR,Unknown,Unknown,Unknown,1 12324U 81022E   25206.50793399  .00000005  00000+0  13153-3 0  9995,2 12324  74.0295 279.9203 0025644  85.6197  23.1279 12.53121854 30458,12.53121854,0.0025644,LEO
12325,COSMOS 1255,1981,115.06,-1.0,UNK,74.03,Inactive,0,LEO,Russia,Russia/USSR,Unknown,Unknown,Unknown,1 12325U 81022F   25206.56471927 -.00000025  00000+0 -59879-4 0  9992,2 12325  74.0325 346.3870 0016954 163.5040 268.8368 12.51484950 27729,12.5148495,0.0016954,LEO
12326,COSMOS 1256,1981,115.24,-1.0,UNK,74.03,Inactive,0,LEO,Russia,Russia/USSR,Unknown,Unknown,Unknown,1 12326U 81022G   25206.32821807  .00000007  00000+0  15028-3 0  9998,2 12326  74.0286  62.1284 0013032 289.1107 245.5912 12.49594115 24761,12.49594115,0.0013032,LEO
12327,COSMOS 1257,1981,115.4,-1.0,UNK,74.03,Inactive,0,LEO,Russia,Russia/USSR,Unknown,Unknown,Unknown,1 12327U 81022H   25206.22337896 -.00000016  00000+0  10681-5 0  9991,2 12327  74.0296 132.0965 0006424  64.3789  44.7777 12.47851297 21885,12.47851297,0.0006424,LEO
4138,COSMOS 304,1969,99.56,-1.0,UNK,74.04,Inactive,0,LEO,Russia,Russia/USSR,Unknown,Unknown,Unknown,1 04138U 69091A   25206.47538201  .00000057  00000+0  23433-4 0  9996,2 04138  74.0394 121.3325 0013474 211.4836 148.5517 14.46406671940492,14.46406671,0.0013474,LEO
20523,INTELSAT 603 (IS-603),1990,1447.53,-1.0,-,13.81,Inactive,0,GSO,USA,INTELSAT,Unknown,Unknown,Unknown,1 20523U 90021A   25205.86169731 -.00000307  00000+0  00000+0 0  9998,2 20523  13.8054  11.6743 0005439  80.5722 279.1488  0.99480784122140,0.99480784,0.0005439,GSO
28707,EXPRESS-AM3,2005,1454.54,2600.0,-,6.49,Inactive,1,GSO,Kazakhstan,Russia/USSR,Commercial,Communications,Proton,1 28707U 05023A   25206.32642274 -.00000007  00000+0  00000+0 0  9995,2 28707   6.4822  71.8648 0002656 165.5198  33.2147  0.98999692 49976,0.98999692,0.0002656,GSO
20527,COSMOS 2061,1990,104.93,-1.0,UNK,82.93,Inactive,0,LEO,Russia,Russia/USSR,Unknown,Unknown,Unknown,1 20527U 90023A   25206.52852628  .00000064  00000+0  52761-4 0  9997,2 20527  82.9345  50.4882 0032431  91.9623 330.2818 13.72350047770000,13.72350047,0.0032431,LEO
12339,OPS 7350 (DSP 9),1981,1457.09,-1.0,UNK,8.79,Inactive,0,GSO,USA,USA,Unknown,Unknown,Unknown,1 12339U 81025A   25205.66571149 -.00000179  00000+0  00000+0 0  9993,2 12339   8.7958 307.2475 0018739 278.5560  75.3492  0.98827474 22593,0.98827474,0.0018739,GSO
20533,NAVSTAR 19 (USA 54),1990,753.77,-1.0,-,53.67,Inactive,0,MEO,USA,USA,Unknown,Unknown,Unknown,1 20533U 90025A   25206.18196582  .00000014  00000+0  00000+0 0  9997,2 20533  53.6704 257.7192 0046003 221.2453 190.2207  1.91038731248777,1.91038731,0.0046003,MEO
20536,COSMOS 2063,1990,721.41,-1.0,UNK,66.73,Inactive,0,MEO,Russia,Russia/USSR,Unknown,Unknown,Unknown,1 20536U 90026A   25206.02765183  .00000566  00000+0  00000+0 0  9995,2 20536  66.7304 188.3264 5645685 136.6231 285.2360  1.99608180257526,1.9960818,0.5645685,MEO
12351,RADUGA 8,1981,1434.99,-1.0,-,7.08,Inactive,0,GSO,Kazakhstan,Russia/USSR,Unknown,Unknown,Unknown,1 12351U 81027A   25206.52247326 -.00000204  00000+0  00000+0 0  9991,2 12351   7.0816 292.5766 0080644 263.4357  84.3185  1.00349274119263,1.00349274,0.0080644,GSO
20547,USA 55,1990,93.52,-1.0,UNK,94.11,Inactive,0,LEO,USA,USA,Unknown,Unknown,Unknown,1 20547U 90028B   25206.29858158  .00004423  00000+0  10607-3 0  9997,2 20547  94.1069 319.5931 0058906 309.9860  49.6229 15.39714483951511,15.39714483,0.0058906,LEO
20549,COSMOS 2064,1990,115.46,-1.0,UNK,73.98,Inactive,0,LEO,Russia,Russia/USSR,Unknown,Unknown,Unknown,1 20549U 90029A   25206.36589872  .00000013  00000+0  19533-3 0  9990,2 20549  73.9811  77.3559 0016781 142.8503  30.5501 12.47219403607351,12.47219403,0.0016781,LEO
20550,COSMOS 2065,1990,115.27,-1.0,UNK,73.98,Inactive,0,LEO,Russia,Russia/USSR,Unknown,Unknown,Unknown,1 20550U 90029B   25206.49292237 -.00000014  00000+0  13125-4 0  9996,2 20550  73.9829  13.6037 0007978 109.3467 313.3101 12.49199832609918,12.49199832,0.0007978,LEO
